start=new Date('2022-12-08T00:00:00.000Z').valueOf();
sats=[{"PERIAPSIS":"538.023","REV_AT_EPOCH":"1927","BSTAR":"0.00217120000000","MEAN_MOTION_DOT":"0.00034299","EPOCH":"2022-12-07T12:19:39.449856","MEAN_ELEMENT_THEORY":"SGP4","PERIOD":"95.447","GP_ID":"219743280","EPHEMERIS_TYPE":"0","SEMIMAJOR_AXIS":"6918.327","DECAY_DATE":null,"OBJECT_NAME":"STARLINK-4541","ELEMENT_SET_NO":"999","RA_OF_ASC_NODE":"48.0550","TLE_LINE2":"2 53427  53.2207  48.0550 0003135  41.9330 318.1901 15.08694035 19279","FILE":"3684212","COUNTRY_CODE":"US","TIME_SYSTEM":"UTC","MEAN_MOTION":"15.08694035","APOAPSIS":"542.360","NORAD_CAT_ID":"53427","INCLINATION":"53.2207","OBJECT_TYPE":"PAYLOAD","ARG_OF_PERICENTER":"41.9330","MEAN_ANOMALY":"318.1901","OBJECT_ID":"2022-097AR","MEAN_MOTION_DDOT":"0.0000000000000","CLASSIFICATION_TYPE":"U","ECCENTRICITY":"0.00031350","SITE":"AFETR","RCS_SIZE":"LARGE","CENTER_NAME":"EARTH","LAUNCH_DATE":"2022-08-10","REF_FRAME":"TEME","TLE_LINE1":"1 53427U 22097AR  22341.51365104  .00034299  00000-0  21712-2 0  9990"},{"INCLINATION":"53.2185","MEAN_ANOMALY":"287.4743","ARG_OF_PERICENTER":"72.6375","OBJECT_TYPE":"PAYLOAD","RCS_SIZE":"LARGE","SITE":"AFETR","ECCENTRICITY":"0.00011520","CLASSIFICATION_TYPE":"U","OBJECT_ID":"2022-097AS","MEAN_MOTION_DDOT":"0.0000000000000","TLE_LINE1":"1 53428U 22097AS  22341.48142263 -.00004376  00000-0 -25702-3 0  9995","REF_FRAME":"TEME","LAUNCH_DATE":"2022-08-10","CENTER_NAME":"EARTH","MEAN_ELEMENT_THEORY":"SGP4","EPOCH":"2022-12-07T11:33:14.915232","MEAN_MOTION_DOT":"-0.00004376","BSTAR":"-0.00025702000000","REV_AT_EPOCH":"1940","PERIAPSIS":"538.940","EPHEMERIS_TYPE":"0","GP_ID":"219744093","PERIOD":"95.437","FILE":"3684212","TLE_LINE2":"2 53428  53.2185  38.2678 0001152  72.6375 287.4743 15.08842607 19401","ELEMENT_SET_NO":"999","RA_OF_ASC_NODE":"38.2678","DECAY_DATE":null,"OBJECT_NAME":"STARLINK-4540","SEMIMAJOR_AXIS":"6917.872","NORAD_CAT_ID":"53428","APOAPSIS":"540.534","MEAN_MOTION":"15.08842607","TIME_SYSTEM":"UTC","COUNTRY_CODE":"US"},{"FILE":"3684212","TLE_LINE2":"2 53429  53.2197  38.2896 0001617  51.4013 308.7124 15.08831273 19404","ELEMENT_SET_NO":"999","RA_OF_ASC_NODE":"38.2896","OBJECT_NAME":"STARLINK-4543","DECAY_DATE":null,"SEMIMAJOR_AXIS":"6917.907","NORAD_CAT_ID":"53429","APOAPSIS":"540.891","MEAN_MOTION":"15.08831273","TIME_SYSTEM":"UTC","COUNTRY_CODE":"US","MEAN_ELEMENT_THEORY":"SGP4","EPOCH":"2022-12-07T11:38:33.697536","MEAN_MOTION_DOT":"-0.00000170","BSTAR":"0.00000740830000","REV_AT_EPOCH":"1940","PERIAPSIS":"538.653","EPHEMERIS_TYPE":"0","GP_ID":"219743893","PERIOD":"95.438","RCS_SIZE":"LARGE","SITE":"AFETR","ECCENTRICITY":"0.00016170","CLASSIFICATION_TYPE":"U","OBJECT_ID":"2022-097AT","MEAN_MOTION_DDOT":"0.0000000000000","TLE_LINE1":"1 53429U 22097AT  22341.48511224 -.00000170  00000-0  74083-5 0  9998","REF_FRAME":"TEME","LAUNCH_DATE":"2022-08-10","CENTER_NAME":"EARTH","INCLINATION":"53.2197","MEAN_ANOMALY":"308.7124","ARG_OF_PERICENTER":"51.4013","OBJECT_TYPE":"PAYLOAD"},{"ELEMENT_SET_NO":"999","RA_OF_ASC_NODE":"36.4576","TLE_LINE2":"2 53430  53.2175  36.4576 0001485  66.6635 293.4513 15.08845516 18987","FILE":"3684134","SEMIMAJOR_AXIS":"6917.864","OBJECT_NAME":"STARLINK-4538","DECAY_DATE":null,"MEAN_MOTION":"15.08845516","APOAPSIS":"540.756","NORAD_CAT_ID":"53430","COUNTRY_CODE":"US","TIME_SYSTEM":"UTC","MEAN_MOTION_DOT":"-0.00000678","EPOCH":"2022-12-07T21:00:14.757984","MEAN_ELEMENT_THEORY":"SGP4","PERIAPSIS":"538.701","REV_AT_EPOCH":"1898","BSTAR":"-0.00002449600000","GP_ID":"219718396","EPHEMERIS_TYPE":"0","PERIOD":"95.437","SITE":"AFETR","RCS_SIZE":"LARGE","MEAN_MOTION_DDOT":"0.0000000000000","OBJECT_ID":"2022-097AU","CLASSIFICATION_TYPE":"U","ECCENTRICITY":"0.00014850","TLE_LINE1":"1 53430U 22097AU  22341.87517081 -.00000678  00000-0 -24496-4 0  9996","CENTER_NAME":"EARTH","LAUNCH_DATE":"2022-08-10","REF_FRAME":"TEME","INCLINATION":"53.2175","OBJECT_TYPE":"PAYLOAD","ARG_OF_PERICENTER":"66.6635","MEAN_ANOMALY":"293.4513"},{"OBJECT_TYPE":"PAYLOAD","ARG_OF_PERICENTER":"97.1066","MEAN_ANOMALY":"263.0040","INCLINATION":"53.2185","CENTER_NAME":"EARTH","LAUNCH_DATE":"2022-08-10","REF_FRAME":"TEME","TLE_LINE1":"1 53431U 22097AV  22341.48602178  .00006164  00000-0  40478-3 0  9997","OBJECT_ID":"2022-097AV","MEAN_MOTION_DDOT":"0.0000000000000","CLASSIFICATION_TYPE":"U","ECCENTRICITY":"0.00009980","SITE":"AFETR","RCS_SIZE":"LARGE","PERIOD":"95.436","GP_ID":"219718474","EPHEMERIS_TYPE":"0","PERIAPSIS":"538.979","REV_AT_EPOCH":"1892","BSTAR":"0.00040478000000","MEAN_MOTION_DOT":"0.00006164","EPOCH":"2022-12-07T11:39:52.281792","MEAN_ELEMENT_THEORY":"SGP4","COUNTRY_CODE":"US","TIME_SYSTEM":"UTC","MEAN_MOTION":"15.08864809","APOAPSIS":"540.360","NORAD_CAT_ID":"53431","SEMIMAJOR_AXIS":"6917.805","DECAY_DATE":null,"OBJECT_NAME":"STARLINK-4548","RA_OF_ASC_NODE":"38.2987","ELEMENT_SET_NO":"999","TLE_LINE2":"2 53431  53.2185  38.2987 0000998  97.1066 263.0040 15.08864809 18928","FILE":"3684134"},{"INCLINATION":"53.2205","MEAN_ANOMALY":"297.6462","ARG_OF_PERICENTER":"62.4652","OBJECT_TYPE":"PAYLOAD","RCS_SIZE":"LARGE","SITE":"AFETR","ECCENTRICITY":"0.00012040","CLASSIFICATION_TYPE":"U","MEAN_MOTION_DDOT":"0.0000000000000","OBJECT_ID":"2022-097AW","TLE_LINE1":"1 53432U 22097AW  22341.84937882 -.00001693  00000-0 -88300-4 0  9992","REF_FRAME":"TEME","LAUNCH_DATE":"2022-08-10","CENTER_NAME":"EARTH","MEAN_ELEMENT_THEORY":"SGP4","EPOCH":"2022-12-07T20:23:06.330048","MEAN_MOTION_DOT":"-0.00001693","BSTAR":"-0.00008830000000","REV_AT_EPOCH":"1946","PERIAPSIS":"538.925","EPHEMERIS_TYPE":"0","GP_ID":"219744481","PERIOD":"95.438","FILE":"3684212","TLE_LINE2":"2 53432  53.2205  36.3110 0001204  62.4652 297.6462 15.08835986 19461","ELEMENT_SET_NO":"999","RA_OF_ASC_NODE":"36.3110","OBJECT_NAME":"STARLINK-4557","DECAY_DATE":null,"SEMIMAJOR_AXIS":"6917.893","NORAD_CAT_ID":"53432","APOAPSIS":"540.591","MEAN_MOTION":"15.08835986","TIME_SYSTEM":"UTC","COUNTRY_CODE":"US"},{"INCLINATION":"53.2179","MEAN_ANOMALY":"283.6983","ARG_OF_PERICENTER":"76.4144","OBJECT_TYPE":"PAYLOAD","ECCENTRICITY":"0.00012050","CLASSIFICATION_TYPE":"U","OBJECT_ID":"2022-097AX","MEAN_MOTION_DDOT":"0.0000000000000","RCS_SIZE":"LARGE","SITE":"AFETR","REF_FRAME":"TEME","LAUNCH_DATE":"2022-08-10","CENTER_NAME":"EARTH","TLE_LINE1":"1 53433U 22097AX  22341.87148325  .00001660  00000-0  12235-3 0  9997","BSTAR":"0.00012235000000","REV_AT_EPOCH":"1898","PERIAPSIS":"538.897","MEAN_ELEMENT_THEORY":"SGP4","EPOCH":"2022-12-07T20:54:56.152800","MEAN_MOTION_DOT":"0.00001660","PERIOD":"95.437","EPHEMERIS_TYPE":"0","GP_ID":"219718401","OBJECT_NAME":"STARLINK-4549","DECAY_DATE":null,"SEMIMAJOR_AXIS":"6917.866","FILE":"3684134","TLE_LINE2":"2 53433  53.2179  36.4368 0001205  76.4144 283.6983 15.08844762 18981","RA_OF_ASC_NODE":"36.4368","ELEMENT_SET_NO":"999","TIME_SYSTEM":"UTC","COUNTRY_CODE":"US","NORAD_CAT_ID":"53433","APOAPSIS":"540.564","MEAN_MOTION":"15.08844762"},{"TIME_SYSTEM":"UTC","COUNTRY_CODE":"US","NORAD_CAT_ID":"53434","APOAPSIS":"541.032","MEAN_MOTION":"15.08842499","DECAY_DATE":null,"OBJECT_NAME":"STARLINK-4498","SEMIMAJOR_AXIS":"6917.873","FILE":"3684212","TLE_LINE2":"2 53434  53.2191  37.4751 0001871  58.0792 302.0382 15.08842499 19432","RA_OF_ASC_NODE":"37.4751","ELEMENT_SET_NO":"999","PERIOD":"95.437","EPHEMERIS_TYPE":"0","GP_ID":"219744680","BSTAR":"-0.00007456600000","REV_AT_EPOCH":"1943","PERIAPSIS":"538.443","MEAN_ELEMENT_THEORY":"SGP4","EPOCH":"2022-12-07T13:56:15.190368","MEAN_MOTION_DOT":"-0.00001475","REF_FRAME":"TEME","LAUNCH_DATE":"2022-08-10","CENTER_NAME":"EARTH","TLE_LINE1":"1 53434U 22097AY  22341.58073137 -.00001475  00000-0 -74566-4 0  9996","ECCENTRICITY":"0.00018710","CLASSIFICATION_TYPE":"U","OBJECT_ID":"2022-097AY","MEAN_MOTION_DDOT":"0.0000000000000","RCS_SIZE":"LARGE","SITE":"AFETR","MEAN_ANOMALY":"302.0382","ARG_OF_PERICENTER":"58.0792","OBJECT_TYPE":"PAYLOAD","INCLINATION":"53.2191"},{"COUNTRY_CODE":"US","TIME_SYSTEM":"UTC","APOAPSIS":"540.564","NORAD_CAT_ID":"53435","MEAN_MOTION":"15.09029950","DECAY_DATE":null,"OBJECT_NAME":"STARLINK-4542","SEMIMAJOR_AXIS":"6917.300","FILE":"3684212","ELEMENT_SET_NO":"999","RA_OF_ASC_NODE":"36.3168","TLE_LINE2":"2 53435  53.2213  36.3168 0002023 279.0819  80.9944 15.09029950 19440","PERIOD":"95.426","GP_ID":"219743281","EPHEMERIS_TYPE":"0","BSTAR":"0.00225210000000","PERIAPSIS":"537.765","REV_AT_EPOCH":"1944","MEAN_ELEMENT_THEORY":"SGP4","MEAN_MOTION_DOT":"0.00035925","EPOCH":"2022-12-07T20:24:12.091680","REF_FRAME":"TEME","CENTER_NAME":"EARTH","LAUNCH_DATE":"2022-08-10","TLE_LINE1":"1 53435U 22097AZ  22341.85013995  .00035925  00000-0  22521-2 0  9990","CLASSIFICATION_TYPE":"U","ECCENTRICITY":"0.00020230","MEAN_MOTION_DDOT":"0.0000000000000","OBJECT_ID":"2022-097AZ","RCS_SIZE":"LARGE","SITE":"AFETR","ARG_OF_PERICENTER":"279.0819","MEAN_ANOMALY":"80.9944","OBJECT_TYPE":"PAYLOAD","INCLINATION":"53.2213"},{"ARG_OF_PERICENTER":"61.9665","MEAN_ANOMALY":"298.1532","OBJECT_TYPE":"PAYLOAD","INCLINATION":"53.2208","TLE_LINE1":"1 53436U 22097BA  22341.44457238 -.00001197  00000-0 -57133-4 0  9993","REF_FRAME":"TEME","CENTER_NAME":"EARTH","LAUNCH_DATE":"2022-08-10","RCS_SIZE":"LARGE","SITE":"AFETR","CLASSIFICATION_TYPE":"U","ECCENTRICITY":"0.00020330","OBJECT_ID":"2022-097BA","MEAN_MOTION_DDOT":"0.0000000000000","GP_ID":"219744094","EPHEMERIS_TYPE":"0","PERIOD":"95.438","MEAN_ELEMENT_THEORY":"SGP4","MEAN_MOTION_DOT":"-0.00001197","EPOCH":"2022-12-07T10:40:11.053632","BSTAR":"-0.00005713300000","PERIAPSIS":"538.341","REV_AT_EPOCH":"1940","APOAPSIS":"541.154","NORAD_CAT_ID":"53436","MEAN_MOTION":"15.08839407","COUNTRY_CODE":"US","TIME_SYSTEM":"UTC","FILE":"3684212","RA_OF_ASC_NODE":"38.0474","ELEMENT_SET_NO":"999","TLE_LINE2":"2 53436  53.2208  38.0474 0002033  61.9665 298.1532 15.08839407 19409","DECAY_DATE":null,"OBJECT_NAME":"STARLINK-4527","SEMIMAJOR_AXIS":"6917.882"}];
